loc_rowid,star_name,planet_letter,pl_pnum,orbital_period,radius,st_dist,st_teff,st_mass,st_rad,rowupdate
1069,KIC 5437945,b,2,440.7813,0.571,,6340,1.07,1.24,1/5/2016
1070,KIC 5951458,b,1,1320.1,0.589,,6258,0.98,1.52,1/5/2016
1071,KIC 7917485,b,1,840,,,7067,1.63,,8/18/2016
1072,KOI-7892,b,2,31.8099,0.366,,6474,1.04,1.26,1/5/2016
1073,KOI-7892,c,2,75.2,0.214,,6474,1.04,1.26,1/5/2016
1074,KIC 9663113,b,2,572.3847,0.41,,6065,0.98,1.03,1/5/2016
1075,KOI-12,b,1,17.8552333,1.43,426,6820,1.45,1.63,5/14/2015
1076,KOI-1257,b,1,86.647661,0.94,900,5520,0.99,1.13,6/25/2014
1077,KOI-13,b,1,1.763588,1.512,,7650,1.72,1.74,10/15/2015
1078,KOI-142,b,2,10.95416,0.337,339,5471,0.96,0.88,5/14/2014
1079,KOI-142,c,2,22.3395,,339,5471,0.96,0.88,5/14/2014
1080,KOI-217,b,1,3.90512,1.11,800,5545,0.95,0.86,5/14/2014
1081,KOI-351,b,8,7.008151,0.117,780,6080,1.2,1.2,5/14/2014
1082,KOI-351,c,8,8.719375,0.106,780,6080,1.2,1.2,5/14/2014
1083,KOI-351,d,8,59.73667,0.256,780,6080,1.2,1.2,5/14/2014
1084,KOI-351,e,8,91.93913,0.237,780,6080,1.2,1.2,5/14/2014
1085,KOI-351,f,8,124.9144,0.257,780,6080,1.2,1.2,5/14/2014
1086,KOI-351,g,8,210.60697,0.723,780,6080,1.2,1.2,5/14/2014
1087,KOI-351,h,8,331.60059,1.008,780,6080,1.2,1.2,5/14/2014
1088,KOI-351,i,8,14.44912,0.118,780,6080,1.2,1.2,12/14/2017
1089,KOI-55,b,2,0.240104,0.068,1180,27730,0.5,0.2,5/14/2014
1090,KOI-55,c,2,0.342887,0.077,1180,27730,0.5,0.2,5/14/2014
1091,KOI-94,b,4,3.743208,0.153,,6182,1.28,1.52,5/14/2014
1092,KOI-94,c,4,10.423648,0.385,,6182,1.28,1.52,5/14/2014
1093,KOI-94,d,4,22.342989,1.005,,6182,1.28,1.52,5/14/2014
1094,KOI-94,e,4,54.32031,0.585,,6182,1.28,1.52,5/14/2014
1095,Kapteyn,c,1,121.54,,3.92,3550,0.28,0.29,6/4/2014
1096,Kepler-10,b,2,0.837491,0.132,173,5627,0.91,1.06,10/15/2015
1097,Kepler-10,c,2,45.294301,0.21,173,5627,0.91,1.06,6/2/2014
1098,Kepler-100,b,3,6.88705,0.118,,5825,1.08,1.49,5/14/2014
1099,Kepler-100,c,3,12.8159,0.196,,5825,1.08,1.49,10/13/2016
1100,Kepler-100,d,3,35.3331,0.144,,5825,1.08,1.49,10/13/2016
1101,Kepler-1000,b,1,120.0181272,0.425,925,6453,1.4,1.51,5/10/2016
1102,Kepler-1001,b,1,14.30511983,0.281,1009,5491,0.9,0.88,5/10/2016
1103,Kepler-1002,b,1,4.33642933,0.153,425,6144,1.22,1.57,5/10/2016
1104,Kepler-1003,b,1,3.55485691,0.159,873,6109,1.11,1.17,5/10/2016
1105,Kepler-1004,b,1,5.28789787,0.56,1080,4972,1.11,3.39,5/10/2016
1106,Kepler-1005,b,1,6.49801525,0.134,515,5782,1,1.06,5/10/2016
1107,Kepler-1006,b,1,19.76172042,0.137,496,5328,0.78,0.74,5/10/2016
1108,Kepler-1007,b,1,5.18500207,0.128,365,4587,0.73,0.7,5/10/2016
1109,Kepler-1008,b,1,12.43931193,0.114,299,5066,0.81,0.78,5/10/2016
1110,Kepler-1009,b,1,11.35011917,0.194,281,4027,0.59,0.57,5/10/2016
1111,Kepler-101,b,2,3.4876812,0.51,,5667,1.17,1.56,9/25/2014
1112,Kepler-101,c,2,6.02976,0.112,,5667,1.17,1.56,9/25/2014
1113,Kepler-1010,b,1,34.2685705,0.207,610,5253,0.86,0.82,5/10/2016
1114,Kepler-1011,b,1,5.75322197,0.256,860,5416,0.91,0.88,5/10/2016
1115,Kepler-1012,b,1,5.50860439,0.115,420,5556,0.95,0.91,5/10/2016
1116,Kepler-1013,b,1,18.93054959,0.192,433,4954,0.81,0.76,5/10/2016
1117,Kepler-1014,b,1,16.57110363,0.213,672,5388,0.88,0.84,5/10/2016
1118,Kepler-1015,b,1,16.00494214,0.317,932,6769,1.49,1.81,5/10/2016
1119,Kepler-1016,b,2,1.95452434,0.194,1239,5821,0.99,1,5/10/2016
1120,Kepler-1016,c,2,105.6551369,0.328,1239,5821,0.99,1,5/10/2016
1121,Kepler-1017,b,1,7.23400469,0.178,554,5473,0.93,0.87,5/10/2016
1122,Kepler-1018,b,1,49.1013514,0.23,894,5518,0.91,0.88,5/10/2016
1123,Kepler-1019,b,1,1.41122985,0.13,198,4433,0.7,0.67,5/10/2016
1124,Kepler-102,b,5,5.28696,0.042,,4909,0.81,0.76,10/13/2016
1125,Kepler-102,c,5,7.07142,0.052,,4909,0.81,0.76,10/13/2016
1126,Kepler-102,d,5,10.3117,0.105,,4909,0.81,0.76,5/14/2014
1127,Kepler-102,e,5,16.1457,0.198,,4909,0.81,0.76,5/14/2014
1128,Kepler-102,f,5,27.4536,0.079,,4909,0.81,0.76,10/13/2016
1129,Kepler-1020,b,1,96.9151496,0.203,446,5227,0.87,0.8,5/10/2016
1130,Kepler-1021,b,1,13.47469571,0.208,837,5431,0.89,0.86,5/10/2016
1131,Kepler-1022,b,1,10.99469878,0.211,455,4445,0.71,0.68,5/10/2016
1132,Kepler-1023,b,1,62.1387714,0.235,686,5494,0.93,0.89,5/10/2016
1133,Kepler-1024,b,1,66.4162133,0.349,1017,5143,0.81,0.78,5/10/2016
1134,Kepler-1025,b,1,37.3229493,0.177,716,6089,1.09,1.13,5/10/2016
1135,Kepler-1026,b,1,36.5156053,0.197,389,4948,0.79,0.75,5/10/2016
1136,Kepler-1027,b,1,1.9078052,0.079,291,5436,0.91,0.82,5/10/2016
1137,Kepler-1028,b,1,2.51462432,0.119,633,5522,0.9,0.87,5/10/2016
1138,Kepler-1029,b,1,4.41769648,0.112,422,5030,0.82,0.77,5/10/2016
1139,Kepler-103,b,2,15.9654,0.301,,5845,1.09,1.44,5/14/2014
1140,Kepler-103,c,2,179.612,0.459,,5845,1.09,1.44,5/14/2014
1141,Kepler-1030,b,1,19.32952416,0.221,795,4983,0.8,0.76,5/10/2016
1142,Kepler-1031,b,1,1.22621732,0.078,741,6011,1.09,1.12,5/10/2016
1143,Kepler-1032,b,1,3.29011795,0.167,607,4647,0.77,0.71,5/10/2016
1144,Kepler-1033,b,1,7.56052806,0.224,1425,5547,0.94,0.92,5/10/2016
1145,Kepler-1034,b,1,12.12400943,0.202,706,5198,0.83,0.8,5/10/2016
1146,Kepler-1035,b,1,2.71407755,0.104,408,5763,0.98,0.97,5/10/2016
1147,Kepler-1036,b,1,122.8808058,0.269,507,5533,0.95,0.89,5/10/2016
1148,Kepler-1037,b,1,1.06378867,0.114,451,5105,0.82,0.78,5/10/2016
1149,Kepler-1038,b,1,148.4603382,0.315,622,5335,0.87,0.83,5/10/2016
1150,Kepler-1039,b,1,0.93488424,0.13,324,4870,0.79,0.74,5/10/2016
1151,Kepler-104,b,3,11.427548,0.277,,5711,0.81,1.35,5/14/2014
1152,Kepler-104,c,3,23.668205,0.279,,5711,0.81,1.35,5/14/2014
1153,Kepler-104,d,3,51.755394,0.319,,5711,0.81,1.35,5/14/2014
1154,Kepler-1040,b,1,201.1214,0.186,473,5694,0.98,0.96,5/10/2016
1155,Kepler-1041,b,1,24.7576421,0.262,979,5957,1.06,1.08,5/10/2016
1156,Kepler-1042,b,1,10.13202575,0.195,659,4815,0.75,0.72,5/10/2016
1157,Kepler-1043,b,1,38.5053398,0.227,838,5629,0.92,0.9,5/10/2016
1158,Kepler-1044,b,1,6.77408868,0.238,1507,5985,1.08,1.11,5/10/2016
1159,Kepler-1045,b,1,26.41045478,0.24,971,5301,0.86,0.82,5/10/2016
1160,Kepler-1046,b,1,14.37508035,0.153,518,5913,1.04,1.04,5/10/2016
1161,Kepler-1047,b,2,56.1886887,0.186,566,5754,1.08,1.13,5/10/2016
1162,Kepler-1047,c,2,3.18897601,0.088,566,5754,1.08,1.13,5/10/2016
1163,Kepler-1048,b,1,6.92101021,0.144,415,4651,0.75,0.7,5/10/2016
1164,Kepler-1049,b,1,3.27346074,0.085,129,3864,0.51,0.49,5/10/2016
1165,Kepler-105,b,2,5.4122,0.429,,5827,0.96,0.89,5/14/2014
1166,Kepler-105,c,2,7.1262,0.117,,5827,0.96,0.89,4/7/2016
1167,Kepler-1050,b,2,15.3787546,0.143,555,6010,1.09,1.13,5/10/2016
1168,Kepler-1050,c,2,21.1284569,0.132,555,6010,1.09,1.13,5/10/2016
1169,Kepler-1051,b,1,25.96200249,0.303,1021,6675,1.43,1.73,5/10/2016
1170,Kepler-1052,b,1,34.8538276,0.261,1051,5888,1.03,1.03,5/10/2016
1171,Kepler-1053,b,1,2.41435165,0.087,171,4529,0.74,0.69,5/10/2016
1172,Kepler-1054,b,1,4.30655689,0.235,1050,6209,1.22,1.34,5/10/2016
1173,Kepler-1055,b,1,2.29503623,0.11,422,5723,0.98,0.94,5/10/2016
1174,Kepler-1056,b,1,27.495606,0.269,971,6127,1.12,1.2,5/10/2016
1175,Kepler-1057,b,1,14.08827448,0.3,1462,5987,1.07,1.1,5/10/2016
1176,Kepler-1058,b,1,110.96546,0.243,525,4644,0.73,0.69,5/10/2016
1177,Kepler-1059,b,1,3.76419105,0.154,673,4906,0.75,0.72,5/10/2016
1178,Kepler-106,b,4,6.16486,0.073,,5858,1,1.04,10/13/2016
1179,Kepler-106,c,4,13.5708,0.223,,5858,1,1.04,5/14/2014
1180,Kepler-106,d,4,23.9802,0.085,,5858,1,1.04,10/13/2016
1181,Kepler-106,e,4,43.8445,0.228,,5858,1,1.04,5/14/2014
1182,Kepler-1060,b,1,46.8779367,0.212,861,5797,0.99,0.99,5/10/2016
1183,Kepler-1061,b,1,2.75798267,0.177,585,6067,1.09,1.07,5/10/2016
1184,Kepler-1062,b,1,9.30412078,0.157,388,4597,0.75,0.7,5/10/2016
1185,Kepler-1063,b,1,14.07971466,0.133,365,5945,1.09,1.14,5/10/2016
1186,Kepler-1064,b,1,16.54080322,0.138,374,5153,0.85,0.79,5/10/2016
1187,Kepler-1065,b,2,3.60930891,0.333,1078,5635,0.94,0.93,5/10/2016
1188,Kepler-1065,c,2,2.37030743,0.143,1078,5635,0.94,0.93,5/10/2016
1189,Kepler-1066,b,1,1.93155984,0.211,399,5762,0.98,0.98,5/10/2016
1190,Kepler-1067,b,1,0.76212926,0.071,689,5592,0.95,0.93,5/10/2016
1191,Kepler-1068,b,1,16.92344113,0.324,1532,5806,1.01,1.01,5/10/2016
1192,Kepler-1069,b,1,23.8990296,0.143,435,5722,0.99,0.98,5/10/2016
1193,Kepler-107,b,4,3.179997,0.139,,5851,,1.41,5/14/2014
1194,Kepler-107,c,4,4.901425,0.161,,5851,,1.41,5/14/2014
1195,Kepler-107,d,4,7.958203,0.095,,5851,,1.41,5/14/2014
1196,Kepler-107,e,4,14.749049,0.308,,5851,,1.41,5/14/2014
1197,Kepler-1070,b,1,6.2216147,0.154,1040,6261,1.21,1.32,5/10/2016
1198,Kepler-1071,b,1,6.1799844,0.212,964,5215,0.86,0.81,5/10/2016
1199,Kepler-1072,b,1,1.5690665,0.141,976,6199,1.2,1.32,5/10/2016
1200,Kepler-1073,b,2,8.67888593,0.205,837,5792,1,1,5/10/2016
1201,Kepler-1073,c,2,4.02582254,0.146,837,5792,1,1,5/10/2016
1202,Kepler-1074,b,1,5.94566534,0.112,245,4002,0.6,0.57,5/10/2016
1203,Kepler-1075,b,1,1.52372816,0.127,265,3959,0.56,0.54,5/10/2016
1204,Kepler-1076,b,1,6.14727918,0.071,199,4868,0.79,0.74,5/10/2016
1205,Kepler-1077,b,1,34.3511874,0.247,1098,5816,1.02,1.02,5/10/2016
1206,Kepler-1078,b,1,3.00725242,0.17,1215,5612,0.94,0.92,5/10/2016
1207,Kepler-1079,b,1,13.24503188,0.145,481,5758,1.08,1.36,5/10/2016
1208,Kepler-108,b,2,49.183921,0.772,,5854,0.87,2.19,5/14/2014
1209,Kepler-108,c,2,190.323494,0.73,,5854,0.87,2.19,5/14/2014
1210,Kepler-1080,b,1,77.2548396,0.293,688,5956,1.1,1.16,5/10/2016
1211,Kepler-1081,b,1,3.85691855,0.09,425,5345,0.88,0.84,5/10/2016
1212,Kepler-1082,b,1,1.5432066,0.1,628,5923,1.03,1.14,5/10/2016
1213,Kepler-1083,b,1,33.4177993,0.3,912,5049,0.81,0.77,5/10/2016
1214,Kepler-1084,b,1,2.05333679,0.099,427,6113,1.12,1.28,5/10/2016
1215,Kepler-1085,b,1,219.3217528,0.644,1518,6000,1.11,1.14,5/10/2016
1216,Kepler-1086,b,2,18.78425728,0.218,464,4350,0.7,0.66,5/10/2016
1217,Kepler-1086,c,2,161.5163345,0.262,464,4350,0.7,0.66,5/10/2016
1218,Kepler-1087,b,1,0.69384285,0.054,354,5589,0.96,0.94,5/10/2016
1219,Kepler-1088,b,1,23.12748644,0.127,300,5975,1.08,1.08,5/10/2016
1220,Kepler-1089,b,1,5.13248562,0.163,227,3753,0.52,0.49,5/10/2016
